IRIDIUM 116             
1 43072U 17083C   24113.90054579  .00000073  00000+0  18895-4 0  9999
2 43072  86.3911 290.1914 0001959  89.6652 270.4768 14.34216912331613
IRIDIUM 130             
1 43073U 17083D   24113.93860623  .00000357  00000+0  12032-3 0  9999
2 43073  86.3920 290.3752 0002191  87.6046 272.5401 14.34222765331564
IRIDIUM 151             
1 43074U 17083E   24113.91323144  .00000301  00000+0  10041-3 0  9997
2 43074  86.3913 290.2265 0002226 101.1194 259.0252 14.34222631331588
IRIDIUM 134             
1 43075U 17083F   24113.95128658  .00000795  00000+0  27668-3 0  9995
2 43075  86.3912 290.2076 0002064  80.9803 279.1626 14.34219563331554
IRIDIUM 137             
1 43076U 17083G   24113.89420490  .00000353  00000+0  11912-3 0  9993
2 43076  86.3917 290.3091 0001816 101.3040 258.8360 14.34222719331616
IRIDIUM 141             
1 43077U 17083H   24113.53901809  .00000011  00000+0 -30707-5 0  9990
2 43077  86.3911 290.3326 0002132  93.6686 266.4754 14.34217368331563
IRIDIUM 153             
1 43078U 17083J   24113.90980209  .00000766  00000+0  26659-3 0  9998
2 43078  86.3944 258.6105 0002621  95.9405 264.2089 14.34217492332723
IRIDIUM 131             
1 43079U 17083K   24113.94494754  .00000361  00000+0  12180-3 0  9993
2 43079  86.3918 290.2966 0002063  95.6072 264.5359 14.34222843331558
